ATLAS CENTAUR 2         
1 00694U 63047A   26187.22180987  .00001171  00000+0  13245-3 0  9997
2 00694  30.3521 252.9455 0545738  45.3796 319.0018 14.12553441148390
THOR AGENA D R/B        
1 00733U 64002A   26187.06483241  .00000190  00000+0  85134-4 0  9991
2 00733  99.1153 206.8151 0031753 274.0585  85.6968 14.34073577255269
SL-3 R/B                
1 00877U 64053B   26186.87476610  .00000224  00000+0  67489-4 0  9997
2 00877  65.0779 344.7177 0080553 255.2524 103.9640 14.61436188284062
SL-8 R/B                
1 02802U 67045B   26187.25412746  .00000323  00000+0  96596-4 0  9995
2 02802  74.0111 126.6479 0063008 105.8094 255.0023 14.45692219106150
SL-8 R/B                
1 03230U 68040B   26187.14230233  .00002944  00000+0  21513-3 0  9991
2 03230  74.0302  71.5230 0025475 221.3962 138.5298 15.03911064107815
OAO 2                   
1 03597U 68110A   26186.81854996  .00000208  00000+0  61192-4 0  9995
2 03597  34.9945 325.6497 0004915  60.4093 299.7087 14.47359468 36223
ISIS 1                  
1 03669U 69009A   26186.86804260  .00000093  00000+0  62663-4 0  9993
2 03669  88.4443 142.3477 1706909 210.4862 138.5171 11.30435803361880
SERT 2                  
1 04327U 70009A   26187.27277685  .00000004  00000+0  61833-4 0  9998
2 04327  99.2840 123.9616 0004191 214.0833 304.2260 13.58740586795997
SL-3 R/B                
1 05118U 71028B   26187.29545493  .00059353  00000+0  45488-3 0  9994
2 05118  81.2314 264.3992 0014342 213.1154 146.9208 15.71732999  7248
ASTEX 1                 
1 05560U 71089A   26187.03886362  .00000463  00000+0  11754-3 0  9994
2 05560  92.7000 189.9269 0017359  50.6631 309.6110 14.50867038879462
SL-8 R/B                
1 05730U 71119B   26186.85000480  .00006526  00000+0  33359-3 0  9996
2 05730  73.8891 314.4750 0543191 256.6921  97.3141 14.39653024672480
OAO 3 (COPERNICUS)      
1 06153U 72065A   26186.85369233  .00000337  00000+0  73493-4 0  9999
2 06153  35.0069 344.0445 0006116  42.2195 107.8876 14.60071365863479
ATLAS CENTAUR R/B       
1 06155U 72065B   26186.78776956  .00001150  00000+0  15863-3 0  9997
2 06155  35.0028 333.4945 0034270 284.4897  75.2003 14.77957127858745
SL-8 R/B                
1 08459U 75112B   26187.23849690  .00000221  00000+0  81197-4 0  9991
2 08459  74.0596 160.8250 0016524 225.1579 134.8234 14.38254899648916
SL-3 R/B                
1 10114U 77057B   26187.22085012  .00010936  00000+0  20892-3 0  9999
2 10114  97.5852   4.6892 0006302 202.1794 157.9184 15.48279816686657
SEASAT 1                
1 10967U 78064A   26187.26075445  .00000226  00000+0  10152-3 0  9996
2 10967 108.0185  14.3288 0001288 247.1410 112.9600 14.46256522523659
SL-14 R/B               
1 11267U 79011B   26186.88662282  .00000627  00000+0  59184-4 0  9995
2 11267  82.5247 344.4065 0016624  27.7112 332.4990 14.92032439546408
SL-8 R/B                
1 11574U 79089B   26187.27802042  .00000208  00000+0  70717-4 0  9995
2 11574  74.0674 231.5172 0015632   8.7446 351.3980 14.42412451453206
SL-14 R/B               
1 11672U 80005B   26187.11179381  .00000521  00000+0  49925-4 0  9995
2 11672  82.5132 194.8881 0017016 125.2215 235.0600 14.91044677494132
SL-8 R/B                
1 12139U 81003B   26187.04891824  .00019360  00000+0  46256-3 0  9992
2 12139  82.9374 180.2403 0250423 125.4533 237.0360 15.14837812332579
SL-3 R/B                
1 12465U 81046B   26187.23789923  .00012573  00000+0  26799-3 0  9997
2 12465  81.2307 147.1130 0016401 330.9774  29.0557 15.44633344456711
SL-3 R/B                
1 12904U 81103B   26187.24655667  .00004393  00000+0  18858-3 0  9995
2 12904  81.1575  74.2395 0011528 244.3119 115.6923 15.22443653991265
SL-3 R/B                
1 13068U 82013B   26187.21210352  .00004522  00000+0  19037-3 0  9997
2 13068  81.1736  21.7228 0022621 137.4480 222.8510 15.22918330422381
SL-3 R/B                
1 13154U 82039B   26187.17798141  .00003522  00000+0  20970-3 0  9990
2 13154  81.1495  79.1464 0027609 289.9678  69.8575 15.10661890399523
SL-3 R/B                
1 13403U 82079B   26187.19924022  .00004746  00000+0  18221-3 0  9997
2 13403  81.1450  52.9959 0024854 122.6364 237.7273 15.25956933395767
SL-14 R/B               
1 13553U 82092B   26187.05016043  .00000422  00000+0  44507-4 0  9992
2 13553  82.5669  30.6504 0018736 268.4674 252.7960 14.86760749346517
SL-3 R/B                
1 13819U 83010B   26187.23893741  .00013792  00000+0  24673-3 0  9991
2 13819  81.0998 216.4918 0014059 356.5113   3.6032 15.49743580376289
SL-3 R/B                
1 14208U 83075B   26187.16417389  .00009958  00000+0  24289-3 0  9999
2 14208  97.6106 196.4478 0021446 160.2399 199.9682 15.40857121348386
COSMOS 1536             
1 14699U 84013A   26186.92668626  .00007741  00000+0  30578-3 0  9997
2 14699  82.5454 350.1762 0013114 222.1581 137.8649 15.25268846290639
SL-14 R/B               
1 14820U 84027B   26187.27027404  .00000489  00000+0  52979-4 0  9992
2 14820  82.5426 133.8222 0016582 303.8813  56.0826 14.86074966265240
